MEAN_MOTION;ECCENTRICITY;INCLINATION;RA_OF_ASC_NODE;ARG_OF_PERICENTER;MEAN_ANOMALY;BSTAR;MEAN_MOTION_DOT;MEAN_MOTION_DDOT;TYPE
14.35650433;0.0002194;86.4007;19.409;77.8375;282.3067;1.9147E-5;7.5E-7;0;Iridium
14.35650521;0.0002188;86.4008;19.2048;77.9209;282.2233;1.9698E-5;7.7E-7;0;Iridium
14.35650576;0.0002177;86.4009;19.0006;77.9368;282.2073;1.8172E-5;7.2E-7;0;Iridium
14.35650652;0.0002165;86.4009;18.7964;77.8974;282.2465;1.887E-5;7.4E-7;0;Iridium
14.35650715;0.000216;86.401;18.563;77.9005;282.2433;1.7732E-5;7.1E-7;0;Iridium
14.3565079;0.000215;86.401;18.388;77.9586;282.1851;1.8544E-5;7.3E-7;0;Iridium
14.35650896;0.0002143;86.401;18.213;78.0855;282.0582;2.0675E-5;7.9E-7;0;Iridium
14.35651046;0.0002127;86.4011;17.9212;78.0721;282.0714;2.3308E-5;8.7E-7;0;Iridium
14.35651046;0.0002127;86.4011;17.9212;78.0721;282.0714;2.3308E-5;8.7E-7;0;Iridium
14.35651046;0.0002127;86.4011;17.9212;78.0721;282.0714;2.3308E-5;8.7E-7;0;Iridium
14.35651302;0.00021;86.4012;17.3378;77.9527;282.1904;2.6323E-5;9.6E-7;0;Iridium
14.35651302;0.00021;86.4012;17.3378;77.9527;282.1904;2.6323E-5;9.6E-7;0;Iridium
14.35651395;0.0002085;86.4013;17.0461;77.8555;282.2875;2.7601E-5;9.9E-7;0;Iridium
14.35651422;0.0002082;86.4014;16.9002;77.9553;282.1876;2.6399E-5;9.6E-7;0;Iridium
14.35651477;0.0002067;86.4014;16.7252;77.9752;282.1676;2.709E-5;9.8E-7;0;Iridium
14.35651542;0.0002061;86.4015;16.4918;77.8894;282.2533;2.7061E-5;9.8E-7;0;Iridium
14.35651631;0.0002042;86.4015;16.0834;77.6862;282.4563;2.5728E-5;9.4E-7;0;Iridium
14.35651698;0.0002032;86.4016;15.7917;77.839;282.3034;2.5774E-5;9.4E-7;0;Iridium
14.35651739;0.0002027;86.4016;15.675;77.8781;282.2642;2.4996E-5;9.2E-7;0;Iridium
14.35651873;0.0002019;86.4016;15.4417;78.253;281.8893;2.8022E-5;1.01E-6;0;Iridium
14.35651955;0.000201;86.4016;15.2376;78.2754;281.8668;2.8087E-5;1.01E-6;0;Iridium
14.35652021;0.0002002;86.4017;15.0917;78.3432;281.799;2.9531E-5;1.05E-6;0;Iridium
14.35652135;0.0001991;86.4017;14.8292;78.3391;281.8029;2.9251E-5;1.04E-6;0;Iridium
14.35652231;0.0001979;86.4017;14.6251;78.4718;281.6701;2.9923E-5;1.06E-6;0;Iridium
14.35652231;0.0001979;86.4017;14.6251;78.4718;281.6701;2.9923E-5;1.06E-6;0;Iridium
14.35652325;0.0001972;86.4017;14.4209;78.6196;281.5222;2.9665E-5;1.05E-6;0;Iridium
14.3565241;0.000196;86.4017;14.2167;78.8259;281.3158;2.9284E-5;1.04E-6;0;Iridium
14.35652498;0.0001955;86.4017;13.9834;79.3134;280.8283;2.8234E-5;1.01E-6;0;Iridium
14.35652536;0.0001942;86.4017;13.8084;79.2792;280.8623;2.6367E-5;9.6E-7;0;Iridium
14.35652595;0.0001939;86.4017;13.5751;79.7529;280.3886;2.4172E-5;9.0E-7;0;Iridium
14.35652608;0.0001927;86.4018;13.4001;79.6833;280.4581;2.1799E-5;8.3E-7;0;Iridium
14.35652628;0.0001923;86.4018;13.1668;79.7311;280.4102;1.851E-5;7.3E-7;0;Iridium
14.35652616;0.0001915;86.4019;13.021;80.0333;280.108;1.7275E-5;7.0E-7;0;Iridium
14.35652629;0.0001908;86.4019;12.7294;80.1335;280.0077;1.3329E-5;5.8E-7;0;Iridium
14.35652711;0.0001901;86.4019;12.5543;80.5976;279.5435;1.5218E-5;6.4E-7;0;Iridium
14.35652711;0.0001901;86.4019;12.5543;80.5976;279.5435;1.5218E-5;6.4E-7;0;Iridium
14.35652736;0.0001898;86.402;12.3211;81.1461;278.995;1.3814E-5;6.0E-7;0;Iridium
14.35652761;0.0001889;86.402;12.1461;81.113;279.028;1.4173E-5;6.1E-7;0;Iridium
14.35652831;0.0001886;86.402;11.9128;81.624;278.5171;1.4828E-5;6.3E-7;0;Iridium
14.35652904;0.000188;86.402;11.6795;81.7152;278.4257;1.6729E-5;6.8E-7;0;Iridium
14.35652904;0.000188;86.402;11.6795;81.7152;278.4257;1.6729E-5;6.8E-7;0;Iridium
14.35653065;0.0001864;86.4021;11.3004;81.9399;278.2009;2.0358E-5;7.9E-7;0;Iridium
14.35653205;0.0001857;86.402;11.0671;82.2248;277.9159;2.4141E-5;8.9E-7;0;Iridium
14.35653205;0.0001857;86.402;11.0671;82.2248;277.9159;2.4141E-5;8.9E-7;0;Iridium
14.35653386;0.0001842;86.402;10.6588;82.6603;277.4803;2.7571E-5;9.9E-7;0;Iridium
14.35653465;0.0001836;86.402;10.513;82.8537;277.2868;3.0031E-5;1.06E-6;0;Iridium
14.35653486;0.0001834;86.402;10.4546;82.8286;277.3119;2.9746E-5;1.06E-6;0;Iridium
14.35653559;0.0001833;86.4019;10.2504;83.241;276.8995;2.9668E-5;1.05E-6;0;Iridium
14.35653559;0.0001833;86.4019;10.2504;83.241;276.8995;2.9668E-5;1.05E-6;0;Iridium
14.3565373;0.000183;86.4019;9.8129;83.8808;276.2597;3.0347E-5;1.07E-6;0;Iridium
14.35653786;0.0001822;86.4018;9.638;83.9665;276.1739;2.9868E-5;1.06E-6;0;Iridium
14.35653884;0.0001821;86.4018;9.4046;84.2771;275.8633;2.9515E-5;1.05E-6;0;Iridium
14.35653941;0.0001812;86.4017;9.2297;84.4567;275.6836;2.9378E-5;1.05E-6;0;Iridium
14.35653994;0.000181;86.4017;8.9964;84.3212;275.8191;2.6365E-5;9.6E-7;0;Iridium
14.35654052;0.0001804;86.4016;8.7922;84.5415;275.5987;2.5738E-5;9.4E-7;0;Iridium
14.35654052;0.0001804;86.4016;8.7922;84.5415;275.5987;2.5738E-5;9.4E-7;0;Iridium
14.35654195;0.0001803;86.4015;8.3838;85.5735;274.5668;2.4119E-5;8.9E-7;0;Iridium
14.35654268;0.0001806;86.4015;8.1504;86.275;273.8653;2.238E-5;8.4E-7;0;Iridium
14.35654443;0.0001801;86.4015;7.8004;86.5756;273.5646;2.4424E-5;9.0E-7;0;Iridium
14.35654455;0.0001802;86.4015;7.7421;86.6572;273.4831;2.3172E-5;8.7E-7;0;Iridium
14.35654556;0.0001803;86.4014;7.3337;87.3556;272.7847;2.0342E-5;7.8E-7;0;Iridium
14.35654686;0.000181;86.4014;6.9545;88.0802;272.0602;2.0736E-5;8.0E-7;0;Iridium
14.35654685;0.0001817;86.4014;6.8962;88.3205;271.8199;1.9931E-5;7.7E-7;0;Iridium
14.35654735;0.0001814;86.4013;6.7212;88.492;271.6484;1.9986E-5;7.7E-7;0;Iridium
14.35654794;0.0001818;86.4012;6.4878;88.5215;271.619;1.9234E-5;7.5E-7;0;Iridium
14.35654805;0.0001814;86.4012;6.3128;88.9062;271.2342;1.8328E-5;7.3E-7;0;Iridium
14.35654807;0.0001825;86.4012;6.0793;88.9998;271.1407;1.5995E-5;6.6E-7;0;Iridium
14.35654929;0.0001826;86.4011;5.6418;89.5789;270.5617;1.7642E-5;7.1E-7;0;Iridium
14.35655128;0.0001829;86.401;5.2333;90.3233;269.8173;2.3132E-5;8.7E-7;0;Iridium
14.35655219;0.000183;86.4009;5.0291;90.6668;269.4739;2.5326E-5;9.3E-7;0;Iridium
14.35655219;0.000183;86.4009;5.0291;90.6668;269.4739;2.5326E-5;9.3E-7;0;Iridium
14.35655341;0.0001837;86.4008;4.7956;90.8554;269.2853;2.8021E-5;1.01E-6;0;Iridium
14.35655424;0.0001842;86.4008;4.5914;91.1894;268.9513;2.9177E-5;1.04E-6;0;Iridium
14.35655502;0.0001847;86.4007;4.4455;91.3544;268.7864;3.0276E-5;1.07E-6;0;Iridium
14.35655489;0.000185;86.4007;4.3872;91.5163;268.6245;2.8595E-5;1.02E-6;0;Iridium
14.35655599;0.0001866;86.4006;4.037;92.387;267.754;2.8135E-5;1.01E-6;0;Iridium
14.35655583;0.0001872;86.4006;3.9787;92.5901;267.551;2.6222E-5;9.5E-7;0;Iridium
14.35655642;0.0001879;86.4004;3.5994;93.2219;266.9192;2.1401E-5;8.2E-7;0;Iridium
14.35655639;0.0001881;86.4004;3.5702;93.2958;266.8454;2.075E-5;8.0E-7;0;Iridium
14.35655661;0.0001887;86.4002;3.2201;93.6222;266.519;1.6679E-5;6.8E-7;0;Iridium
14.35655661;0.0001887;86.4002;3.2201;93.6222;266.519;1.6679E-5;6.8E-7;0;Iridium
14.35655662;0.0001889;86.4002;3.1617;93.6243;266.517;1.5165E-5;6.4E-7;0;Iridium
14.35655714;0.0001893;86.4002;2.9574;93.7505;266.3908;1.5005E-5;6.3E-7;0;Iridium
14.35655836;0.0001903;86.4;2.5489;94.2652;265.8762;1.458E-5;6.2E-7;0;Iridium
14.35655836;0.0001903;86.4;2.5489;94.2652;265.8762;1.458E-5;6.2E-7;0;Iridium
14.35655879;0.000191;86.4;2.3155;94.4492;265.6923;1.3089E-5;5.8E-7;0;Iridium
14.35656007;0.0001915;86.4;2.1113;94.5731;265.5685;1.6333E-5;6.7E-7;0;Iridium
14.35656068;0.0001924;86.3999;1.907;94.6548;265.4868;1.6041E-5;6.6E-7;0;Iridium
14.35656073;0.0001927;86.3999;1.8778;94.5441;265.5975;1.6387E-5;6.7E-7;0;Iridium
14.35656151;0.0001939;86.3998;1.6735;94.9035;265.2383;1.7681E-5;7.1E-7;0;Iridium
14.35656241;0.0001948;86.3998;1.4692;94.9071;265.2348;1.8928E-5;7.4E-7;0;Iridium
14.35656405;0.0001963;86.3997;1.119;95.2908;264.8512;2.2032E-5;8.3E-7;0;Iridium
14.35656395;0.000198;86.3997;1.0314;95.603;264.5393;2.0969E-5;8.0E-7;0;Iridium
14.35656567;0.0001982;86.3996;0.6812;95.5249;264.6173;2.3914E-5;8.9E-7;0;Iridium
14.35656646;0.0002004;86.3995;0.3018;95.6374;264.5051;2.39E-5;8.9E-7;0;Iridium
14.35656667;0.0002007;86.3995;0.2434;95.6459;264.4966;2.3654E-5;8.8E-7;0;Iridium
14.35656725;0.0002012;86.3994;0.0391;95.615;264.5276;2.4404E-5;9.0E-7;0;Iridium
14.35656781;0.0002024;86.3993;359.8056;95.7816;264.3611;2.3938E-5;8.9E-7;0;Iridium
14.35656902;0.0002037;86.3991;359.4552;96.1707;263.9721;2.5929E-5;9.5E-7;0;Iridium
14.35656901;0.000204;86.3991;359.3968;96.0582;264.0848;2.4586E-5;9.1E-7;0;Iridium
14.35656999;0.0002053;86.3989;359.0465;96.2022;263.9408;2.5263E-5;9.3E-7;0;Iridium
14.35656986;0.0002059;86.3989;358.9881;96.1827;263.9604;2.3238E-5;8.7E-7;0;Iridium
14.35657136;0.0002083;86.3988;358.6087;96.6256;263.5178;2.5261E-5;9.3E-7;0;Iridium
14.35657136;0.0002083;86.3988;358.6087;96.6256;263.5178;2.5261E-5;9.3E-7;0;Iridium
14.35657138;0.0002087;86.3988;358.5503;96.6696;263.4738;2.4226E-5;9.0E-7;0;Iridium
14.35657306;0.000211;86.3986;358.1707;96.9631;263.1805;2.5543E-5;9.3E-7;0;Iridium
14.35657318;0.0002111;86.3986;358.1415;96.9398;263.2039;2.5555E-5;9.4E-7;0;Iridium
14.35657498;0.0002124;86.3984;357.7912;97.1221;263.0217;2.7249E-5;9.8E-7;0;Iridium
14.35657533;0.0002128;86.3984;357.7328;97.1072;263.0367;2.7068E-5;9.8E-7;0;Iridium
14.35657692;0.0002143;86.3982;357.3824;97.0075;263.1366;2.7335E-5;9.9E-7;0;Iridium
14.35657709;0.0002149;86.3982;357.324;97.0387;263.1054;2.6596E-5;9.7E-7;0;Iridium
14.35657926;0.0002172;86.398;356.7109;97.1195;263.0249;2.3712E-5;8.8E-7;0;Iridium
14.35657989;0.0002183;86.3979;356.5065;96.8614;263.2831;2.2549E-5;8.5E-7;0;Iridium
14.3565798;0.0002182;86.398;356.4774;96.7778;263.3667;2.1583E-5;8.2E-7;0;Iridium
14.35658086;0.0002197;86.3978;356.127;96.6835;263.4611;2.0861E-5;8.0E-7;0;Iridium
14.35658047;0.0002214;86.3978;356.0395;96.8808;263.2641;1.769E-5;7.1E-7;0;Iridium
14.35658148;0.0002236;86.3977;355.6889;96.9282;263.2169;1.7962E-5;7.2E-7;0;Iridium
14.35658149;0.000224;86.3977;355.6305;96.9573;263.1878;1.7244E-5;7.0E-7;0;Iridium
14.35658324;0.0002257;86.3975;355.2801;96.8769;263.2685;2.1754E-5;8.3E-7;0;Iridium
14.35658333;0.0002259;86.3975;355.2509;96.8637;263.2816;2.1389E-5;8.2E-7;0;Iridium
14.35658312;0.0002259;86.3975;355.2217;96.8489;263.2965;1.97E-5;7.7E-7;0;Iridium
